[{"OBJECT_NAME":"QIANFAN-59","OBJECT_ID":"2025-016E","EPOCH":"2026-03-09T22:05:06.195840","MEAN_MOTION":13.51007395,"ECCENTRICITY":0.00164146,"INCLINATION":88.9686,"RA_OF_ASC_NODE":94.0802,"ARG_OF_PERICENTER":95.2663,"MEAN_ANOMALY":265.0362,"EPHEMERIS_TYPE":0,"CLASSIFICATION_TYPE":"U","NORAD_CAT_ID":62789,"ELEMENT_SET_NO":999,"REV_AT_EPOCH":5901,"BSTAR":5.6884419e-5,"MEAN_MOTION_DOT":4.9e-7,"MEAN_MOTION_DDOT":0},{"OBJECT_NAME":"CZ-6A DEB","OBJECT_ID":"2024-140AQ","EPOCH":"2026-03-09T22:09:42.824448","MEAN_MOTION":13.36012242,"ECCENTRICITY":0.04567965,"INCLINATION":88.467,"RA_OF_ASC_NODE":263.1831,"ARG_OF_PERICENTER":15.1475,"MEAN_ANOMALY":346.2833,"EPHEMERIS_TYPE":0,"CLASSIFICATION_TYPE":"U","NORAD_CAT_ID":60639,"ELEMENT_SET_NO":999,"REV_AT_EPOCH":7724,"BSTAR":0.00026095006,"MEAN_MOTION_DOT":2.55e-6,"MEAN_MOTION_DDOT":0}]
